1 27424U 02022A   10044.91695112 +.00000087 +00000-0 +29441-4 0 05612
2 27424 098.2065 348.2472 0001631 094.5045 265.6357 14.57114914413963